*******************************************************************************
Ephemeris / WWW_USER Mon Mar 24 08:18:50 2025 Pasadena, USA      / Horizons    
*******************************************************************************
Target body name: (2018 UG3)                      {source: JPL#15}
Center body name: Earth (399)                     {source: DE441}
Center-site name: Mauna Kea
*******************************************************************************
Start time      : A.D. 2018-Sep-26 04:24:00.0000 UT      
Stop  time      : A.D. 2018-Sep-26 16:02:00.0000 UT      
Step-size       : 1 minutes
*******************************************************************************
Target pole/equ : undefined
Target radii    : undefined                                                    
Center geodetic : 204.5278, 19.8260847, 4.21024   {E-lon(deg),Lat(deg),Alt(km)}
Center cylindric: 204.5278, 6006.35451, 2151.0229 {E-lon(deg),Dxy(km),Dz(km)}
Center pole/equ : ITRF93                          {East-longitude positive}
Center radii    : 6378.137, 6378.137, 6356.752 km {Equator_a, b, pole_c}       
Target primary  : Sun
Vis. interferer : MOON (R_eq= 1737.400) km        {source: DE441}
Rel. light bend : Sun                             {source: DE441}
Rel. lght bnd GM: 1.3271E+11 km^3/s^2                                          
Small-body perts: Yes                             {source: SB441-N16}
Atmos refraction: NO (AIRLESS)
RA format       : HMS
Time format     : CAL 
Calendar mode   : Mixed Julian/Gregorian
RTS-only print  : NO       
EOP file        : eop.250321.p250617                                           
EOP coverage    : DATA-BASED 1962-JAN-20 TO 2025-MAR-21. PREDICTS-> 2025-JUN-16
Units conversion: 1 au= 149597870.700 km, c= 299792.458 km/s, 1 day= 86400.0 s 
Table cut-offs 1: Elevation (-90.0deg=NO ),Airmass (>38.000=NO), Daylight (YES)
Table cut-offs 2: Solar elongation (  0.0,180.0=NO ),Local Hour Angle( 0.0=NO )
Table cut-offs 3: RA/DEC angular rate (     0.0=NO )                           
*******************************************************************************
Initial IAU76/J2000 heliocentric ecliptic osculating elements (au, days, deg.):
  EPOCH=  2458429.5 ! 2018-Nov-07.00 (TDB)         Residual RMS= .46194        
   EC= .4227384440318329   QR= .9585039390071354   TP= 2458393.2526467689      
   OM= 47.27406359171053   W=  314.2704472892426   IN= 6.159551265235018       
  Equivalent ICRF heliocentric cartesian coordinates (au, au/d):
   X= 7.430529944075828E-01  Y= 6.714692173902916E-01  Z= 2.851295671149762E-01
  VX=-1.040372162305418E-02 VY= 1.447630012002514E-02 VZ= 8.505235531163944E-03
Asteroid physical parameters (km, seconds, rotational period in hours):        
   GM= n.a.                RAD= n.a.               ROTPER= n.a.                
   H= 24.5                 G= .150                 B-V= n.a.                   
                           ALBEDO= n.a.            STYP= n.a.                  
*******************************************************************************
 Date__(UT)__HR:MN     R.A._________(ICRF)_________DEC
******************************************************
$$SOE
 2018-Sep-26 08:30  m  16 09 30.542501 -51 02 40.39988
 2018-Sep-26 08:31  m  16 09 30.617853 -51 02 41.16583
 2018-Sep-26 08:32  m  16 09 30.693308 -51 02 41.93187
 2018-Sep-26 08:33  m  16 09 30.768864 -51 02 42.69798
 2018-Sep-26 08:34  m  16 09 30.844522 -51 02 43.46417
 2018-Sep-26 08:35  m  16 09 30.920283 -51 02 44.23046
 2018-Sep-26 08:36  m  16 09 30.996146 -51 02 44.99683
 2018-Sep-26 08:37  m  16 09 31.072110 -51 02 45.76330
 2018-Sep-26 08:38  m  16 09 31.148177 -51 02 46.52987
 2018-Sep-26 08:39  m  16 09 31.224346 -51 02 47.29653
 2018-Sep-26 08:40  m  16 09 31.300617 -51 02 48.06330
 2018-Sep-26 08:41  m  16 09 31.376989 -51 02 48.83018
 2018-Sep-26 08:42  m  16 09 31.453463 -51 02 49.59716
 2018-Sep-26 08:43  m  16 09 31.530040 -51 02 50.36426
 2018-Sep-26 08:44  m  16 09 31.606717 -51 02 51.13148
 2018-Sep-26 08:45  m  16 09 31.683497 -51 02 51.89881
 2018-Sep-26 08:46  m  16 09 31.760378 -51 02 52.66627
 2018-Sep-26 08:47  m  16 09 31.837361 -51 02 53.43385
 2018-Sep-26 08:48  m  16 09 31.914445 -51 02 54.20156
 2018-Sep-26 08:49  m  16 09 31.991631 -51 02 54.96941
 2018-Sep-26 08:50  m  16 09 32.068918 -51 02 55.73739
 2018-Sep-26 08:51  m  16 09 32.146306 -51 02 56.50551
 2018-Sep-26 08:52  m  16 09 32.223795 -51 02 57.27377
 2018-Sep-26 08:53  m  16 09 32.301386 -51 02 58.04218
 2018-Sep-26 08:54  m  16 09 32.379078 -51 02 58.81073
 2018-Sep-26 08:55  m  16 09 32.456871 -51 02 59.57944
 2018-Sep-26 08:56  m  16 09 32.534764 -51 03 00.34830
 2018-Sep-26 08:57  m  16 09 32.612759 -51 03 01.11732
 2018-Sep-26 08:58  m  16 09 32.690855 -51 03 01.88650
 2018-Sep-26 08:59  m  16 09 32.769051 -51 03 02.65585
 2018-Sep-26 09:00  m  16 09 32.847347 -51 03 03.42536
 2018-Sep-26 09:01  m  16 09 32.925745 -51 03 04.19505
 2018-Sep-26 09:02  m  16 09 33.004243 -51 03 04.96491
 2018-Sep-26 09:03  m  16 09 33.082841 -51 03 05.73494
 2018-Sep-26 09:04  m  16 09 33.161539 -51 03 06.50516
 2018-Sep-26 09:05  m  16 09 33.240338 -51 03 07.27556
 2018-Sep-26 09:06  m  16 09 33.319237 -51 03 08.04615
 2018-Sep-26 09:07  m  16 09 33.398235 -51 03 08.81692
 2018-Sep-26 09:08  m  16 09 33.477334 -51 03 09.58789
 2018-Sep-26 09:09  m  16 09 33.556532 -51 03 10.35906
 2018-Sep-26 09:10  m  16 09 33.635831 -51 03 11.13042
 2018-Sep-26 09:11  m  16 09 33.715228 -51 03 11.90199
 2018-Sep-26 09:12  m  16 09 33.794726 -51 03 12.67376
 2018-Sep-26 09:13  m  16 09 33.874322 -51 03 13.44575
 2018-Sep-26 09:14  m  16 09 33.954018 -51 03 14.21794
 2018-Sep-26 09:15  m  16 09 34.033813 -51 03 14.99035
 2018-Sep-26 09:16  m  16 09 34.113707 -51 03 15.76298
 2018-Sep-26 09:17  m  16 09 34.193700 -51 03 16.53583
 2018-Sep-26 09:18  m  16 09 34.273792 -51 03 17.30890
 2018-Sep-26 09:19  m  16 09 34.353983 -51 03 18.08220
 2018-Sep-26 09:20  m  16 09 34.434272 -51 03 18.85574
 2018-Sep-26 09:21  m  16 09 34.514660 -51 03 19.62950
 2018-Sep-26 09:22  m  16 09 34.595146 -51 03 20.40351
 2018-Sep-26 09:23  m  16 09 34.675730 -51 03 21.17775
 2018-Sep-26 09:24  m  16 09 34.756412 -51 03 21.95224
 2018-Sep-26 09:25  m  16 09 34.837193 -51 03 22.72697
 2018-Sep-26 09:26  m  16 09 34.918071 -51 03 23.50195
 2018-Sep-26 09:27  m  16 09 34.999046 -51 03 24.27719
 2018-Sep-26 09:28  m  16 09 35.080120 -51 03 25.05268
 2018-Sep-26 09:29  m  16 09 35.161291 -51 03 25.82843
 2018-Sep-26 09:30  m  16 09 35.242559 -51 03 26.60444
 2018-Sep-26 09:31  m  16 09 35.323924 -51 03 27.38072
 2018-Sep-26 09:32  m  16 09 35.405386 -51 03 28.15726
 2018-Sep-26 09:33  m  16 09 35.486945 -51 03 28.93408
 2018-Sep-26 09:34  m  16 09 35.568601 -51 03 29.71117
 2018-Sep-26 09:35  m  16 09 35.650353 -51 03 30.48854
 2018-Sep-26 09:36  m  16 09 35.732202 -51 03 31.26618
 2018-Sep-26 09:37  m  16 09 35.814147 -51 03 32.04411
 2018-Sep-26 09:38  m  16 09 35.896188 -51 03 32.82233
 2018-Sep-26 09:39  m  16 09 35.978325 -51 03 33.60084
 2018-Sep-26 09:40  m  16 09 36.060558 -51 03 34.37964
 2018-Sep-26 09:41  m  16 09 36.142886 -51 03 35.15873
 2018-Sep-26 09:42  m  16 09 36.225310 -51 03 35.93812
 2018-Sep-26 09:43  m  16 09 36.307829 -51 03 36.71782
 2018-Sep-26 09:44  m  16 09 36.390444 -51 03 37.49782
 2018-Sep-26 09:45  m  16 09 36.473153 -51 03 38.27812
 2018-Sep-26 09:46  m  16 09 36.555957 -51 03 39.05874
 2018-Sep-26 09:47  m  16 09 36.638856 -51 03 39.83967
 2018-Sep-26 09:48  m  16 09 36.721849 -51 03 40.62092
 2018-Sep-26 09:49  m  16 09 36.804937 -51 03 41.40249
 2018-Sep-26 09:50  m  16 09 36.888119 -51 03 42.18437
 2018-Sep-26 09:51  m  16 09 36.971394 -51 03 42.96659
 2018-Sep-26 09:52  m  16 09 37.054764 -51 03 43.74913
 2018-Sep-26 09:53  m  16 09 37.138227 -51 03 44.53201
 2018-Sep-26 09:54  m  16 09 37.221783 -51 03 45.31522
 2018-Sep-26 09:55  m  16 09 37.305433 -51 03 46.09876
 2018-Sep-26 09:56  m  16 09 37.389176 -51 03 46.88265
 2018-Sep-26 09:57  m  16 09 37.473012 -51 03 47.66688
 2018-Sep-26 09:58  m  16 09 37.556940 -51 03 48.45146
 2018-Sep-26 09:59  m  16 09 37.640960 -51 03 49.23638
 2018-Sep-26 10:00  m  16 09 37.725073 -51 03 50.02166
 2018-Sep-26 10:01  m  16 09 37.809279 -51 03 50.80729
 2018-Sep-26 10:02  m  16 09 37.893576 -51 03 51.59328
 2018-Sep-26 10:03  m  16 09 37.977964 -51 03 52.37963
 2018-Sep-26 10:04  m  16 09 38.062444 -51 03 53.16635
 2018-Sep-26 10:05  m  16 09 38.147016 -51 03 53.95343
 2018-Sep-26 10:06  m  16 09 38.231678 -51 03 54.74088
 2018-Sep-26 10:07  m  16 09 38.316432 -51 03 55.52870
 2018-Sep-26 10:08  m  16 09 38.401276 -51 03 56.31690
 2018-Sep-26 10:09  m  16 09 38.486211 -51 03 57.10548
 2018-Sep-26 10:10  m  16 09 38.571235 -51 03 57.89443
 2018-Sep-26 10:11  m  16 09 38.656350 -51 03 58.68377
 2018-Sep-26 10:12  m  16 09 38.741555 -51 03 59.47350
 2018-Sep-26 10:13  m  16 09 38.826849 -51 04 00.26362
 2018-Sep-26 10:14  m  16 09 38.912233 -51 04 01.05413
 2018-Sep-26 10:15  m  16 09 38.997706 -51 04 01.84503
 2018-Sep-26 10:16  m  16 09 39.083268 -51 04 02.63633
 2018-Sep-26 10:17  m  16 09 39.168919 -51 04 03.42804
 2018-Sep-26 10:18  m  16 09 39.254658 -51 04 04.22014
 2018-Sep-26 10:19  m  16 09 39.340485 -51 04 05.01266
 2018-Sep-26 10:20  m  16 09 39.426401 -51 04 05.80558
 2018-Sep-26 10:21  m  16 09 39.512404 -51 04 06.59891
 2018-Sep-26 10:22  m  16 09 39.598495 -51 04 07.39266
 2018-Sep-26 10:23  m  16 09 39.684673 -51 04 08.18683
 2018-Sep-26 10:24  m  16 09 39.770939 -51 04 08.98142
 2018-Sep-26 10:25  m  16 09 39.857291 -51 04 09.77643
 2018-Sep-26 10:26  m  16 09 39.943731 -51 04 10.57186
 2018-Sep-26 10:27  m  16 09 40.030256 -51 04 11.36773
 2018-Sep-26 10:28  m  16 09 40.116868 -51 04 12.16402
 2018-Sep-26 10:29  m  16 09 40.203566 -51 04 12.96075
 2018-Sep-26 10:30  m  16 09 40.290349 -51 04 13.75792
 2018-Sep-26 10:31  m  16 09 40.377218 -51 04 14.55552
 2018-Sep-26 10:32  m  16 09 40.464172 -51 04 15.35357
